[{"OBJECT_NAME":"STARLINK-30993","OBJECT_ID":"2023-186S","EPOCH":"2026-03-09T00:33:51.495552","MEAN_MOTION":15.27561669,"ECCENTRICITY":0.00018117,"INCLINATION":43.0032,"RA_OF_ASC_NODE":67.4606,"ARG_OF_PERICENTER":277.2444,"MEAN_ANOMALY":82.8202,"EPHEMERIS_TYPE":0,"CLASSIFICATION_TYPE":"U","NORAD_CAT_ID":58489,"ELEMENT_SET_NO":999,"REV_AT_EPOCH":12578,"BSTAR":0.0002212858,"MEAN_MOTION_DOT":5.829e-5,"MEAN_MOTION_DDOT":0},{"OBJECT_NAME":"FLOCK 4G-29","OBJECT_ID":"2025-009AK","EPOCH":"2026-03-09T19:33:04.927968","MEAN_MOTION":15.27382318,"ECCENTRICITY":0.00013664,"INCLINATION":97.4058,"RA_OF_ASC_NODE":151.3683,"ARG_OF_PERICENTER":288.0502,"MEAN_ANOMALY":72.0588,"EPHEMERIS_TYPE":0,"CLASSIFICATION_TYPE":"U","NORAD_CAT_ID":62642,"ELEMENT_SET_NO":999,"REV_AT_EPOCH":6372,"BSTAR":0.0004183135,"MEAN_MOTION_DOT":0.00011147,"MEAN_MOTION_DDOT":0}]
